[
    {
        "gsin": "DEPARTURE-ADDRESS",
        "address": {
            "address": "Via Cisanello",
            "city": "Pisa",
            "district": "PI",
            "house_number": "40",
            "zip_code": "56124",
            "telephone_number": "+393393333333"
        }
    },
    {
        "gsin": "40212345678955996410",
        "address": {
            "address": "Via Rino Ricci",
            "city": "Pisa",
            "district": "PI",
            "house_number": "8",
            "zip_code": "56121",
            "telephone_number": "+393384444444"
        }
    },
    {
        "gsin": "40212345678955996411",
        "address": {
            "address": "Via S. Michele degli scalzi",
            "city": "Pisa",
            "district": "PI",
            "house_number": "31",
            "zip_code": "56124",
            "telephone_number": "+393355555555"
        }
    },
    {
        "gsin": "40212345678955996412",
        "address": {
            "address": "Via delle torri",
            "city": "Pisa",
            "district": "PI",
            "house_number": "17",
            "zip_code": "56124",
            "telephone_number": "+393336666666"
        }
    },
    {
        "gsin": "40212345678955996413",
        "address": {
            "address": "Via San Biagio",
            "city": "Pisa",
            "district": "PI",
            "house_number": "52",
            "zip_code": "56124",
            "telephone_number": "+393347777777"
        }
    },
    {
        "gsin": "40212345678955996414",
        "address": {
            "address": "Via Marsala",
            "city": "Pisa",
            "district": "PI",
            "house_number": "34",
            "zip_code": "56121",
            "telephone_number": "+393348888888"
        }
    },
    {
        "gsin": "40212345678955996415",
        "address": {
            "address": "Via Putigliano Sant'Ermete",
            "city": "Pisa",
            "district": "PI",
            "house_number": "293",
            "zip_code": "56121",
            "telephone_number": "3334567812"
        }
    },
    {
        "gsin": "40212345678955996416",
        "address": {
            "address": "Via Francesco Lavaggi",
            "city": "Pisa",
            "district": "PI",
            "house_number": "97",
            "zip_code": "56121",
            "telephone_number": "+393321111111"
        }
    },
    {
        "gsin": "40212345678955996417",
        "address": {
            "address": "Via Nuova Oratoio",
            "city": "Pisa",
            "district": "PI",
            "house_number": "2",
            "zip_code": "56121",
            "telephone_number": "+393319999999"
        }
    },
    {
        "gsin": "40212345678955996418",
        "address": {
            "address": "Via Italo Possenti",
            "city": "Asciano",
            "district": "PI",
            "house_number": "18",
            "zip_code": "56017",
            "telephone_number": "+393311010101"
        }
    },
    {
        "gsin": "40212345678955996419",
        "address": {
            "address": "Via Carlo Collodi",
            "city": "San Giuliano Terme",
            "district": "PI",
            "house_number": "7",
            "zip_code": "56017",
            "telephone_number": "+393387676767"
        }
    },
    {
        "gsin": "40212345678955996420",
        "address": {
            "address": "Via del Cantone",
            "city": "San Giuliano Terme",
            "district": "PI",
            "house_number": "27",
            "zip_code": "56017",
            "telephone_number": "+393323535353"
        }
    },
    {
        "gsin": "40212345678955996421",
        "address": {
            "address": "Via G. Boccaccio",
            "city": "Ghezzano",
            "district": "PI",
            "house_number": "31",
            "zip_code": "56010",
            "telephone_number": "+393770000000"
        }
    },
    {
        "gsin": "40212345678955996422",
        "address": {
            "address": "Via Mario Giuntini",
            "city": "Navacchio",
            "district": "PI",
            "house_number": "63",
            "zip_code": "56021",
            "telephone_number": "+390005435433"
        }
    }
]